NORAD_CAT_ID,OBJECT_NAME,OBJECT_TYPE,EPOCH,MEAN_MOTION,ECCENTRICITY,INCLINATION,RA_OF_ASC_NODE,ARG_OF_PERICENTER,MEAN_ANOMALY,BSTAR,MEAN_MOTION_DOT,MEAN_MOTION_DDOT,TLE_LINE0,TLE_LINE1,TLE_LINE2,SEMIMAJOR_AXIS,PERIOD,APOGEE,PERIGEE,DECAYED
55757.0,STARLINK-5544,PAYLOAD,2024-05-23 20:30:19,14.9833572,0.0003024,69.9992,95.4716,270.3447,89.7366,2.2179e-05,1.72e-06,0.0,0 STARLINK-5544,1 55757U 23028S   24144.85439651  .00000172  00000-0  22179-4 0  9995,2 55757  69.9992  95.4716 0003024 270.3447  89.7366 14.98335720 67951,6950.175,96.107,574.142,569.938,0.0
55757.0,STARLINK-5544,PAYLOAD,2024-05-24 04:30:59,14.98339761,0.0002584,70.0004,94.6313,258.549,101.5379,7.2073e-05,7.67e-06,0.0,0 STARLINK-5544,1 55757U 23028S   24145.18819082  .00000767  00000-0  72073-4 0  9990,2 55757  70.0004  94.6313 0002584 258.5490 101.5379 14.98339761 68001,6950.163,96.106,573.824,570.232,0.0
55757.0,STARLINK-5544,PAYLOAD,2024-05-24 06:07:07,14.98340571,0.0002741,70.0002,94.4626,260.5535,99.5315,0.00011142,1.237e-05,0.0,0 STARLINK-5544,1 55757U 23028S   24145.25494901  .00001237  00000-0  11142-3 0  9999,2 55757  70.0002  94.4626 0002741 260.5535  99.5315 14.98340571 68010,6950.16,96.106,573.93,570.12,0.0
55757.0,STARLINK-5544,PAYLOAD,2024-05-24 20:32:21,14.98328325,0.000247,70.002,92.9474,279.986,80.102,4.4916e-05,4.43e-06,0.0,0 STARLINK-5544,1 55757U 23028S   24145.85579927  .00000443  00000-0  44916-4 0  9991,2 55757  70.0020  92.9474 0002470 279.9860  80.1020 14.98328325 68100,6950.198,96.107,573.78,570.346,0.0
55757.0,STARLINK-5544,PAYLOAD,2024-05-24 22:08:29,14.98319989,0.0003288,70.0003,92.7809,273.1522,86.9261,2.0336e-05,1.5e-06,0.0,0 STARLINK-5544,1 55757U 23028S   24145.92256388  .00000150  00000-0  20336-4 0  9997,2 55757  70.0003  92.7809 0003288 273.1522  86.9261 14.98319989 68118,6950.224,96.108,574.374,569.804,0.0
55757.0,STARLINK-5544,PAYLOAD,2024-05-25 14:09:50,14.9832393,0.0003323,69.9992,91.0962,264.6592,95.4188,7.3577e-05,7.85e-06,0.0,0 STARLINK-5544,1 55757U 23028S   24146.59016215  .00000785  00000-0  73577-4 0  9993,2 55757  69.9992  91.0962 0003323 264.6592  95.4188 14.98323930 68211,6950.212,96.107,574.386,569.767,0.0
55757.0,STARLINK-5544,PAYLOAD,2024-05-26 04:35:02,14.98335579,0.0003125,69.9996,89.5807,269.5166,90.5635,2.4367e-05,1.98e-06,0.0,0 STARLINK-5544,1 55757U 23028S   24147.19099647  .00000198  00000-0  24367-4 0  9991,2 55757  69.9996  89.5807 0003125 269.5166  90.5635 14.98335579 68301,6950.176,96.107,574.213,569.869,0.0
55757.0,STARLINK-5544,PAYLOAD,2024-05-26 06:11:10,14.98336558,0.000311,69.9997,89.4124,269.2824,90.7979,3.818e-05,3.63e-06,0.0,0 STARLINK-5544,1 55757U 23028S   24147.25775542  .00000363  00000-0  38180-4 0  9995,2 55757  69.9997  89.4124 0003110 269.2824  90.7979 14.98336558 68317,6950.173,96.107,574.199,569.876,0.0
55757.0,STARLINK-5544,PAYLOAD,2024-05-26 20:36:22,14.98322752,0.0003196,69.9999,87.8974,270.5206,89.5587,0.00020841,2.394e-05,0.0,0 STARLINK-5544,1 55757U 23028S   24147.85859940  .00002394  00000-0  20841-3 0  9996,2 55757  69.9999  87.8974 0003196 270.5206  89.5587 14.98322752 68409,6950.215,96.107,574.302,569.859,0.0
55757.0,STARLINK-5544,PAYLOAD,2024-05-26 22:12:31,14.98322957,0.0003204,69.9998,87.7291,270.6607,89.4185,0.00019055,2.181e-05,0.0,0 STARLINK-5544,1 55757U 23028S   24147.92536011  .00002181  00000-0  19055-3 0  9994,2 55757  69.9998  87.7291 0003204 270.6607  89.4185 14.98322957 68416,6950.215,96.107,574.307,569.853,0.0
55757.0,STARLINK-5544,PAYLOAD,2024-05-27 12:37:43,14.9833146,0.0003052,70.0003,86.2153,268.9344,91.1465,0.00011324,1.258e-05,0.0,0 STARLINK-5544,1 55757U 23028S   24148.52619776  .00001258  00000-0  11324-3 0  9996,2 55757  70.0003  86.2153 0003052 268.9344  91.1465 14.98331460 68506,6950.188,96.107,574.175,569.932,0.0
55757.0,STARLINK-5544,PAYLOAD,2024-05-27 20:38:23,14.98331468,0.0003003,70.0004,85.3742,266.8128,93.2688,4.5596e-05,4.51e-06,0.0,0 STARLINK-5544,1 55757U 23028S   24148.85999930  .00000451  00000-0  45596-4 0  9998,2 55757  70.0004  85.3742 0003003 266.8128  93.2688 14.98331468 68557,6950.188,96.107,574.14,569.966,0.0
55757.0,STARLINK-5544,PAYLOAD,2024-05-27 22:14:31,14.98331686,0.0003006,70.0004,85.2058,266.641,93.4405,4.6207e-05,4.58e-06,0.0,0 STARLINK-5544,1 55757U 23028S   24148.92675901  .00000458  00000-0  46207-4 0  9992,2 55757  70.0004  85.2058 0003006 266.6410  93.4405 14.98331686 68563,6950.188,96.107,574.142,569.963,0.0
55757.0,STARLINK-5544,PAYLOAD,2024-05-28 12:39:44,14.98335124,0.0002969,70.0004,83.6907,265.4351,94.6469,5.6742e-05,5.84e-06,0.0,0 STARLINK-5544,1 55757U 23028S   24149.52759491  .00000584  00000-0  56742-4 0  9991,2 55757  70.0004  83.6907 0002969 265.4351  94.6469 14.98335124 68650,6950.177,96.107,574.106,569.979,0.0
55757.0,STARLINK-5544,PAYLOAD,2024-05-28 20:40:24,14.9833097,0.0002845,70.0007,82.8494,262.1693,97.9143,4.3478e-05,4.26e-06,0.0,0 STARLINK-5544,1 55757U 23028S   24149.86139737  .00000426  00000-0  43478-4 0  9990,2 55757  70.0007  82.8494 0002845 262.1693  97.9143 14.98330970 68706,6950.19,96.107,574.032,570.078,0.0
55757.0,STARLINK-5544,PAYLOAD,2024-05-28 22:16:32,14.98330868,0.0002854,70.0007,82.6812,261.742,98.3415,3.9418e-05,3.77e-06,0.0,0 STARLINK-5544,1 55757U 23028S   24149.92815742  .00000377  00000-0  39418-4 0  9998,2 55757  70.0007  82.6812 0002854 261.7420  98.3415 14.98330868 68715,6950.19,96.107,574.039,570.072,0.0
55757.0,STARLINK-5544,PAYLOAD,2024-05-29 06:17:13,14.98331804,0.0002841,70.0008,81.8396,260.4237,99.6601,4.4987e-05,4.44e-06,0.0,0 STARLINK-5544,1 55757U 23028S   24150.26195621  .00000444  00000-0  44987-4 0  9996,2 55757  70.0008  81.8396 0002841 260.4237  99.6601 14.98331804 68769,6950.187,96.107,574.027,570.078,0.0
55757.0,STARLINK-5544,PAYLOAD,2024-05-29 20:42:25,14.983332,0.0002813,70.0008,80.3247,257.1667,102.9178,5.1668e-05,5.24e-06,0.0,0 STARLINK-5544,1 55757U 23028S   24150.86279487  .00000524  00000-0  51668-4 0  9998,2 55757  70.0008  80.3247 0002813 257.1667 102.9178 14.98333200 68856,6950.183,96.107,574.003,570.093,0.0
55757.0,STARLINK-5544,PAYLOAD,2024-05-29 22:18:33,14.98333175,0.0002819,70.0008,80.1564,256.9039,103.1805,4.9586e-05,4.99e-06,0.0,0 STARLINK-5544,1 55757U 23028S   24150.92955477  .00000499  00000-0  49586-4 0  9992,2 55757  70.0008  80.1564 0002819 256.9039 103.1805 14.98333175 68864,6950.183,96.107,574.007,570.089,0.0
55757.0,STARLINK-5544,PAYLOAD,2024-05-30 04:43:05,14.98333513,0.0002874,70.0005,79.4818,265.4857,94.5974,4.7995e-05,4.8e-06,0.0,0 STARLINK-5544,1 55757U 23028S   24151.19659493  .00000480  00000-0  47995-4 0  9993,2 55757  70.0005  79.4818 0002874 265.4857  94.5974 14.98333513 68909,6950.182,96.107,574.045,570.05,0.0
55757.0,STARLINK-5544,PAYLOAD,2024-05-30 22:20:34,14.98332605,0.00029,70.0004,77.6301,265.3714,94.7114,5.7016e-05,5.87e-06,0.0,0 STARLINK-5544,1 55757U 23028S   24151.93095417  .00000587  00000-0  57016-4 0  9998,2 55757  70.0004  77.6301 0002900 265.3714  94.7114 14.98332605 69018,6950.185,96.107,574.065,570.034,0.0
55757.0,STARLINK-5544,PAYLOAD,2024-05-31 04:45:06,14.98334519,0.0002868,70.0005,76.9569,265.8977,94.1854,7.7523e-05,8.32e-06,0.0,0 STARLINK-5544,1 55757U 23028S   24152.19799203  .00000832  00000-0  77523-4 0  9999,2 55757  70.0005  76.9569 0002868 265.8977  94.1854 14.98334519 69051,6950.179,96.107,574.037,570.051,0.0
55757.0,STARLINK-5544,PAYLOAD,2024-05-31 22:22:35,14.98331163,0.0002916,70.0003,75.1043,270.2665,89.816,4.9324e-05,4.96e-06,0.0,0 STARLINK-5544,1 55757U 23028S   24152.93235339  .00000496  00000-0  49324-4 0  9990,2 55757  70.0003  75.1043 0002916 270.2665  89.8160 14.98331163 69160,6950.189,96.107,574.081,570.028,0.0
55757.0,STARLINK-5544,PAYLOAD,2024-06-01 04:47:07,14.98333978,0.000283,70.0005,74.431,268.079,92.0045,6.5493e-05,6.89e-06,0.0,0 STARLINK-5544,1 55757U 23028S   24153.19939073  .00000689  00000-0  65493-4 0  9994,2 55757  70.0005  74.4310 0002830 268.0790  92.0045 14.98333978 69209,6950.181,96.107,574.012,570.079,0.0
55757.0,STARLINK-5544,PAYLOAD,2024-06-02 04:49:08,14.98330753,0.0002738,70.001,71.9073,269.3524,90.7322,1.0577e-05,3.3e-07,0.0,0 STARLINK-5544,1 55757U 23028S   24154.20079428  .00000033  00000-0  10577-4 0  9992,2 55757  70.0010  71.9073 0002738 269.3524  90.7322 14.98330753 69356,6950.191,96.107,573.959,570.153,0.0
55757.0,STARLINK-5544,PAYLOAD,2024-06-02 11:13:41,14.98315463,0.0002628,70.0013,71.2338,273.9123,86.1735,0.00024118,2.785e-05,0.0,0 STARLINK-5544,1 55757U 23028S   24154.46784061  .00002785  00000-0  24118-3 0  9997,2 55757  70.0013  71.2338 0002628 273.9123  86.1735 14.98315463 69392,6950.238,96.108,573.929,570.276,0.0
55757.0,STARLINK-5544,PAYLOAD,2024-06-03 04:51:08,14.98364202,0.0002558,70.0013,69.3823,279.9975,80.0895,-0.00049538,-6.004e-05,0.0,0 STARLINK-5544,1 55757U 23028S   24155.20218393 -.00006004  00000-0 -49538-3 0  9993,2 55757  70.0013  69.3823 0002558 279.9975  80.0895 14.98364202 69500,6950.087,96.105,573.73,570.174,0.0
55757.0,STARLINK-5544,PAYLOAD,2024-06-03 11:15:41,14.98332663,0.0002624,70.0021,68.7083,276.2307,83.8553,5.3936e-05,5.51e-06,0.0,0 STARLINK-5544,1 55757U 23028S   24155.46923305  .00000551  00000-0  53936-4 0  9994,2 55757  70.0021  68.7083 0002624 276.2307  83.8553 14.98332663 69545,6950.185,96.107,573.873,570.226,0.0
55757.0,STARLINK-5544,PAYLOAD,2024-06-04 11:17:41,14.9837298,0.000289,70.0021,66.1835,276.2806,83.8024,-0.00059004,-7.134e-05,0.0,0 STARLINK-5544,1 55757U 23028S   24156.47061609 -.00007134  00000-0 -59004-3 0  9993,2 55757  70.0021  66.1835 0002890 276.2806  83.8024 14.98372980 69696,6950.06,96.104,573.934,569.916,0.0
55757.0,STARLINK-5544,PAYLOAD,2024-06-04 17:42:14,14.98333231,0.0002655,70.0019,65.5111,268.2021,91.8834,5.2477e-05,5.33e-06,0.0,0 STARLINK-5544,1 55757U 23028S   24156.73767038  .00000533  00000-0  52477-4 0  9993,2 55757  70.0019  65.5111 0002655 268.2021  91.8834 14.98333231 69731,6950.183,96.107,573.893,570.203,0.0
